{"type": "FeatureCollection", "features": [ {"type": "Feature", "properties": {"norad_id": 35038, "name": "COSMOS 2251 DEB", "group": "cosmos-2251-debris", "lat": -19.465132980363645, "lon": -129.18189674805407, "alt_km": 893.5246101816774, "timestamp": "2025-12-11T08:58:27.521287+00:00", "meta": {"OBJECT_NAME": "COSMOS 2251 DEB", "OBJECT_ID": "1993-036AHB", "EPOCH": "2025-12-09T21:12:51.178752", "MEAN_MOTION": 14.25117767, "ECCENTRICITY": 0.01138214, "INCLINATION": 74.1071, "RA_OF_ASC_NODE": 47.7141, "ARG_OF_PERICENTER": 32.4196, "MEAN_ANOMALY": 86.2003, "EPHEMERIS_TYPE": 0, "CLASSIFICATION_TYPE": "U", "NORAD_CAT_ID": 35038, "ELEMENT_SET_NO": 999, "REV_AT_EPOCH": 85528, "BSTAR": 0.0019860831, "MEAN_MOTION_DOT": 4.964e-05, "MEAN_MOTION_DDOT": 0}, "tle": {"line1": "1 35038U 93036AHB 25343.88392568  .00004964  00000+0  19861-2 0  9995", "line2": "2 35038  74.1071  47.7141 0113821  32.4196  86.2003 14.25117767855284"}}, "geometry": {"type": "Point", "coordinates": [-129.18189674805407, -19.465132980363645]}}, {"type": "Feature", "properties": {"norad_id": 35043, "name": "COSMOS 2251 DEB", "group": "cosmos-2251-debris", "lat": 34.126271236241514, "lon": -142.98223305144495, "alt_km": 663.4115566600221, "timestamp": "2025-12-11T08:58:27.521298+00:00", "meta": {"OBJECT_NAME": "COSMOS 2251 DEB", "OBJECT_ID": "1993-036AHG", "EPOCH": "2025-12-10T11:10:42.887424", "MEAN_MOTION": 14.76758408, "ECCENTRICITY": 0.00968597, "INCLINATION": 73.9504, "RA_OF_ASC_NODE": 50.0569, "ARG_OF_PERICENTER": 259.781, "MEAN_ANOMALY": 99.243, "EPHEMERIS_TYPE": 0, "CLASSIFICATION_TYPE": "U", "NORAD_CAT_ID": 35043, "ELEMENT_SET_NO": 999, "REV_AT_EPOCH": 67385, "BSTAR": 0.0060386636, "MEAN_MOTION_DOT": 0.00045991, "MEAN_MOTION_DDOT": 0}, "tle": {"line1": "1 35043U 93036AHG 25344.46577416  .00045991  00000+0  60387-2 0  9997", "line2": "2 35043  73.9504  50.0569 0096859 259.7810  99.2430 14.76758408673855"}}, "geometry": {"type": "Point", "coordinates": [-142.98223305144495, 34.126271236241514]}}, {"type": "Feature", "properties": {"norad_id": 35045, "name": "COSMOS 2251 DEB", "group": "cosmos-2251-debris", "lat": -10.447566164322259, "lon": 52.027147435163066, "alt_km": 812.4664942032086, "timestamp": "2025-12-11T08:58:27.521308+00:00", "meta": {"OBJECT_NAME": "COSMOS 2251 DEB", "OBJECT_ID": "1993-036AHJ", "EPOCH": "2025-12-10T21:01:26.063040", "MEAN_MOTION": 14.00378664, "ECCENTRICITY": 0.0183537, "INCLINATION": 73.7197, "RA_OF_ASC_NODE": 55.995, "ARG_OF_PERICENTER": 298.261, "MEAN_ANOMALY": 60.0102, "EPHEMERIS_TYPE": 0, "CLASSIFICATION_TYPE": "U", "NORAD_CAT_ID": 35045, "ELEMENT_SET_NO": 999, "REV_AT_EPOCH": 84617, "BSTAR": 0.00091974, "MEAN_MOTION_DOT": 1.549e-05, "MEAN_MOTION_DDOT": 0}, "tle": {"line1": "1 35045U 93036AHJ 25344.87599610  .00001549  00000+0  91974-3 0  9992", "line2": "2 35045  73.7197  55.9950 0183537 298.2610  60.0102 14.00378664846175"}}, "geometry": {"type": "Point", "coordinates": [52.027147435163066, -10.447566164322259]}}, {"type": "Feature", "properties": {"norad_id": 35060, "name": "COSMOS 2251 DEB", "group": "cosmos-2251-debris", "lat": 49.22184983164966, "lon": -93.75160604286057, "alt_km": 746.2696733982284, "timestamp": "2025-12-11T08:58:27.521318+00:00", "meta": {"OBJECT_NAME": "COSMOS 2251 DEB", "OBJECT_ID": "1993-036AHP", "EPOCH": "2025-11-28T02:37:07.839264", "MEAN_MOTION": 14.41547968, "ECCENTRICITY": 0.00179641, "INCLINATION": 74.0363, "RA_OF_ASC_NODE": 271.4275, "ARG_OF_PERICENTER": 359.5881, "MEAN_ANOMALY": 0.5257, "EPHEMERIS_TYPE": 0, "CLASSIFICATION_TYPE": "U", "NORAD_CAT_ID": 35060, "ELEMENT_SET_NO": 999, "REV_AT_EPOCH": 87031, "BSTAR": 0.0004076845, "MEAN_MOTION_DOT": 1.301e-05, "MEAN_MOTION_DDOT": 0}, "tle": {"line1": "1 35060U 93036AHP 25332.10911851  .00001301  00000+0  40768-3 0  9998", "line2": "2 35060  74.0363 271.4275 0017964 359.5881   0.5257 14.41547968870310"}}, "geometry": {"type": "Point", "coordinates": [-93.75160604286057, 49.22184983164966]}}, {"type": "Feature", "properties": {"norad_id": 35061, "name": "COSMOS 2251 DEB", "group": "cosmos-2251-debris", "lat": 11.513035514286537, "lon": 125.02159481704211, "alt_km": 677.6168487077512, "timestamp": "2025-12-11T08:58:27.521329+00:00", "meta": {"OBJECT_NAME": "COSMOS 2251 DEB", "OBJECT_ID": "1993-036AHQ", "EPOCH": "2025-12-10T04:24:26.439840", "MEAN_MOTION": 14.67788932, "ECCENTRICITY": 0.00390241, "INCLINATION": 74.0462, "RA_OF_ASC_NODE": 310.6593, "ARG_OF_PERICENTER": 62.2963, "MEAN_ANOMALY": 298.2158, "EPHEMERIS_TYPE": 0, "CLASSIFICATION_TYPE": "U", "NORAD_CAT_ID": 35061, "ELEMENT_SET_NO": 999, "REV_AT_EPOCH": 88537, "BSTAR": 0.0011530424, "MEAN_MOTION_DOT": 6.628e-05, "MEAN_MOTION_DDOT": 0}, "tle": {"line1": "1 35061U 93036AHQ 25344.18363935  .00006628  00000+0  11530-2 0  9995", "line2": "2 35061  74.0462 310.6593 0039024  62.2963 298.2158 14.67788932885374"}}, "geometry": {"type": "Point", "coordinates": [125.02159481704211, 11.513035514286537]}}, {"type": "Feature", "properties": {"norad_id": 35062, "name": "COSMOS 2251 DEB", "group": "cosmos-2251-debris", "lat": 73.02819839480844, "lon": 164.9716432895811, "alt_km": 718.2340738017665, "timestamp": "2025-12-11T08:58:27.521339+00:00", "meta": {"OBJECT_NAME": "COSMOS 2251 DEB", "OBJECT_ID": "1993-036AHR", "EPOCH": "2025-12-10T15:42:45.436320", "MEAN_MOTION": 14.22906612, "ECCENTRICITY": 0.01275957, "INCLINATION": 74.0784, "RA_OF_ASC_NODE": 96.9836, "ARG_OF_PERICENTER": 97.3041, "MEAN_ANOMALY": 264.2628, "EPHEMERIS_TYPE": 0, "CLASSIFICATION_TYPE": "U", "NORAD_CAT_ID": 35062, "ELEMENT_SET_NO": 999, "REV_AT_EPOCH": 85469, "BSTAR": 0.0028656551, "MEAN_MOTION_DOT": 6.986e-05, "MEAN_MOTION_DDOT": 0}, "tle": {"line1": "1 35062U 93036AHR 25344.65469255  .00006986  00000+0  28657-2 0  9995", "line2": "2 35062  74.0784  96.9836 0127595  97.3041 264.2628 14.22906612854697"}}, "geometry": {"type": "Point", "coordinates": [164.9716432895811, 73.02819839480844]}}, {"type": "Feature", "properties": {"norad_id": 35065, "name": "COSMOS 2251 DEB", "group": "cosmos-2251-debris", "lat": 18.80010300119311, "lon": -157.51397647947982, "alt_km": 732.0699435763172, "timestamp": "2025-12-11T08:58:27.521349+00:00", "meta": {"OBJECT_NAME": "COSMOS 2251 DEB", "OBJECT_ID": "1993-036AHU", "EPOCH": "2025-12-08T21:05:49.871616", "MEAN_MOTION": 14.4570853, "ECCENTRICITY": 0.0019714, "INCLINATION": 74.0196, "RA_OF_ASC_NODE": 201.5431, "ARG_OF_PERICENTER": 327.1177, "MEAN_ANOMALY": 32.8753, "EPHEMERIS_TYPE": 0, "CLASSIFICATION_TYPE": "U", "NORAD_CAT_ID": 35065, "ELEMENT_SET_NO": 999, "REV_AT_EPOCH": 68295, "BSTAR": 0.00050947, "MEAN_MOTION_DOT": 1.782e-05, "MEAN_MOTION_DDOT": 0}, "tle": {"line1": "1 35065U 93036AHU 25342.87904944  .00001782  00000+0  50947-3 0  9996", "line2": "2 35065  74.0196 201.5431 0019714 327.1177  32.8753 14.45708530682959"}}, "geometry": {"type": "Point", "coordinates": [-157.51397647947982, 18.80010300119311]}}, {"type": "Feature", "properties": {"norad_id": 35071, "name": "COSMOS 2251 DEB", "group": "cosmos-2251-debris", "lat": -42.68737966463464, "lon": 160.8303483319947, "alt_km": 584.7290151210182, "timestamp": "2025-12-11T08:58:27.521359+00:00", "meta": {"OBJECT_NAME": "COSMOS 2251 DEB", "OBJECT_ID": "1993-036AJA", "EPOCH": "2025-12-06T06:11:48.969024", "MEAN_MOTION": 15.03269957, "ECCENTRICITY": 0.00683754, "INCLINATION": 73.9314, "RA_OF_ASC_NODE": 186.7627, "ARG_OF_PERICENTER": 85.1943, "MEAN_ANOMALY": 275.7048, "EPHEMERIS_TYPE": 0, "CLASSIFICATION_TYPE": "U", "NORAD_CAT_ID": 35071, "ELEMENT_SET_NO": 999, "REV_AT_EPOCH": 67439, "BSTAR": 0.0011992827, "MEAN_MOTION_DOT": 0.00017109, "MEAN_MOTION_DDOT": 0}, "tle": {"line1": "1 35071U 93036AJA 25340.25820566  .00017109  00000+0  11993-2 0  9997", "line2": "2 35071  73.9314 186.7627 0068375  85.1943 275.7048 15.03269957674390"}}, "geometry": {"type": "Point", "coordinates": [160.8303483319947, -42.68737966463464]}}, {"type": "Feature", "properties": {"norad_id": 35073, "name": "COSMOS 2251 DEB", "group": "cosmos-2251-debris", "lat": 69.5052427605505, "lon": 23.500345430079253, "alt_km": 550.8986135214873, "timestamp": "2025-12-11T08:58:27.521370+00:00", "meta": {"OBJECT_NAME": "COSMOS 2251 DEB", "OBJECT_ID": "1993-036AJC", "EPOCH": "2025-12-10T16:37:50.806560", "MEAN_MOTION": 15.00404336, "ECCENTRICITY": 0.00107016, "INCLINATION": 74.0016, "RA_OF_ASC_NODE": 334.7492, "ARG_OF_PERICENTER": 76.0723, "MEAN_ANOMALY": 284.1653, "EPHEMERIS_TYPE": 0, "CLASSIFICATION_TYPE": "U", "NORAD_CAT_ID": 35073, "ELEMENT_SET_NO": 999, "REV_AT_EPOCH": 67448, "BSTAR": 0.0043502619, "MEAN_MOTION_DOT": 0.00055148, "MEAN_MOTION_DDOT": 0}, "tle": {"line1": "1 35073U 93036AJC 25344.69294915  .00055148  00000+0  43503-2 0  9991", "line2": "2 35073  74.0016 334.7492 0010701  76.0723 284.1653 15.00404336674488"}}, "geometry": {"type": "Point", "coordinates": [23.500345430079253, 69.5052427605505]}}, {"type": "Feature", "properties": {"norad_id": 35284, "name": "COSMOS 2251 DEB", "group": "cosmos-2251-debris", "lat": 64.35471937334853, "lon": 50.37366811760522, "alt_km": 764.5500300486547, "timestamp": "2025-12-11T08:58:27.521380+00:00", "meta": {"OBJECT_NAME": "COSMOS 2251 DEB", "OBJECT_ID": "1993-036AJN", "EPOCH": "2025-12-11T05:50:04.475040", "MEAN_MOTION": 14.38315035, "ECCENTRICITY": 0.0016748, "INCLINATION": 74.0492, "RA_OF_ASC_NODE": 267.1786, "ARG_OF_PERICENTER": 344.0345, "MEAN_ANOMALY": 169.0006, "EPHEMERIS_TYPE": 0, "CLASSIFICATION_TYPE": "U", "NORAD_CAT_ID": 35284, "ELEMENT_SET_NO": 999, "REV_AT_EPOCH": 65504, "BSTAR": 0.00026377, "MEAN_MOTION_DOT": 7.78e-06, "MEAN_MOTION_DDOT": 0}, "tle": {"line1": "1 35284U 93036AJN 25345.24310735  .00000778  00000+0  26377-3 0  9996", "line2": "2 35284  74.0492 267.1786 0016748 344.0345 169.0006 14.38315035655041"}}, "geometry": {"type": "Point", "coordinates": [50.37366811760522, 64.35471937334853]}}]}